<?xml version='1.0' encoding='utf-8'?>
<gpx xmlns="http://www.topografix.com/GPX/1/1" xmlns:gpxdata="http://www.cluetrust.com/XML/GPXDATA/1/0" version="1.1" creator="crawler">
  <wpt lat="46.3226880" lon="8.3657699">
    <ele>1773.8</ele>
    <time>2026-09-15T10:34:41Z</time>
    <name>1 km</name>
  </wpt>
  <wpt lat="46.3200580" lon="8.3573377">
    <ele>1953.0</ele>
    <time>2026-09-15T11:04:09Z</time>
    <name>2 km</name>
  </wpt>
  <wpt lat="46.3168291" lon="8.3471165">
    <ele>2083.1</ele>
    <time>2026-09-15T11:27:00Z</time>
    <name>3 km</name>
  </wpt>
  <wpt lat="46.3160112" lon="8.3357943">
    <ele>2324.6</ele>
    <time>2026-09-15T11:56:24Z</time>
    <name>4 km</name>
  </wpt>
  <wpt lat="46.3153123" lon="8.3240582">
    <ele>2242.3</ele>
    <time>2026-09-15T12:17:05Z</time>
    <name>5 km</name>
  </wpt>
  <wpt lat="46.3198284" lon="8.3170811">
    <ele>2138.5</ele>
    <time>2026-09-15T12:35:13Z</time>
    <name>6 km</name>
  </wpt>
  <wpt lat="46.3165555" lon="8.3063820">
    <ele>2210.1</ele>
    <time>2026-09-15T12:54:14Z</time>
    <name>7 km</name>
  </wpt>
  <wpt lat="46.3178037" lon="8.2948589">
    <ele>2139.3</ele>
    <time>2026-09-15T13:13:26Z</time>
    <name>8 km</name>
  </wpt>
  <wpt lat="46.3197948" lon="8.2860998">
    <ele>1986.1</ele>
    <time>2026-09-15T13:32:37Z</time>
    <name>9 km</name>
  </wpt>
  <wpt lat="46.3244598" lon="8.2819138">
    <ele>1836.5</ele>
    <time>2026-09-15T13:50:56Z</time>
    <name>10 km</name>
  </wpt>
  <trk>
    <name>62.2r Salècchio - Crampiolo</name>
    <link href="https://schweizmobil.ch/fr/hiking-in-switzerland/route-62/stage-2" />
    <type>hiking</type>
    <trkseg>
      <trkpt lat="46.3209660" lon="8.3738830">
        <ele>1476.8</ele>
        <time>2026-09-15T10:00:00Z</time>
        <extensions>
          <gpxdata:distance>0.00</gpxdata:distance>
          <gpxdata:speed>0.000</gpxdata:speed>
        </extensions>
      </trkpt>
      <trkpt lat="46.3211490" lon="8.3735220">
        <ele>1498.4</ele>
        <time>2026-09-15T10:01:15Z</time>
        <extensions>
          <gpxdata:distance>34.39</gpxdata:distance>
          <gpxdata:speed>0.461</gpxdata:speed>
        </extensions>
      </trkpt>
      <trkpt lat="46.3212060" lon="8.3730950">
        <ele>1510.3</ele>
        <time>2026-09-15T10:02:27Z</time>
        <extensions>
          <gpxdata:distance>67.79</gpxdata:distance>
          <gpxdata:speed>0.461</gpxdata:speed>
        </extensions>
      </trkpt>
      <trkpt lat="46.3217190" lon="8.3731290">
        <ele>1516.6</ele>
        <time>2026-09-15T10:04:31Z</time>
        <extensions>
          <gpxdata:distance>124.89</gpxdata:distance>
          <gpxdata:speed>0.461</gpxdata:speed>
        </extensions>
      </trkpt>
      <trkpt lat="46.3217190" lon="8.3731290">
        <ele>1516.6</ele>
        <time>2026-09-15T10:04:31Z</time>
        <extensions>
          <gpxdata:distance>124.89</gpxdata:distance>
          <gpxdata:speed>0.000</gpxdata:speed>
        </extensions>
      </trkpt>
      <trkpt lat="46.3214880" lon="8.3728010">
        <ele>1522.4</ele>
        <time>2026-09-15T10:05:49Z</time>
        <extensions>
          <gpxdata:distance>160.86</gpxdata:distance>
          <gpxdata:speed>0.461</gpxdata:speed>
        </extensions>
      </trkpt>
      <trkpt lat="46.3213820" lon="8.3725520">
        <ele>1526.7</ele>
        <time>2026-09-15T10:06:37Z</time>
        <extensions>
          <gpxdata:distance>183.33</gpxdata:distance>
          <gpxdata:speed>0.461</gpxdata:speed>
        </extensions>
      </trkpt>
      <trkpt lat="46.3213400" lon="8.3721360">
        <ele>1536.0</ele>
        <time>2026-09-15T10:07:47Z</time>
        <extensions>
          <gpxdata:distance>215.61</gpxdata:distance>
          <gpxdata:speed>0.461</gpxdata:speed>
        </extensions>
      </trkpt>
      <trkpt lat="46.3213710" lon="8.3716560">
        <ele>1552.4</ele>
        <time>2026-09-15T10:09:07Z</time>
        <extensions>
          <gpxdata:distance>252.63</gpxdata:distance>
          <gpxdata:speed>0.461</gpxdata:speed>
        </extensions>
      </trkpt>
      <trkpt lat="46.3215460" lon="8.3712050">
        <ele>1567.7</ele>
        <time>2026-09-15T10:10:34Z</time>
        <extensions>
          <gpxdata:distance>292.36</gpxdata:distance>
          <gpxdata:speed>0.461</gpxdata:speed>
        </extensions>
      </trkpt>
      <trkpt lat="46.3213350" lon="8.3705780">
        <ele>1573.8</ele>
        <time>2026-09-15T10:12:23Z</time>
        <extensions>
          <gpxdata:distance>345.92</gpxdata:distance>
          <gpxdata:speed>0.491</gpxdata:speed>
        </extensions>
      </trkpt>
      <trkpt lat="46.3214380" lon="8.3700860">
        <ele>1585.3</ele>
        <time>2026-09-15T10:13:39Z</time>
        <extensions>
          <gpxdata:distance>385.40</gpxdata:distance>
          <gpxdata:speed>0.513</gpxdata:speed>
        </extensions>
      </trkpt>
      <trkpt lat="46.3211910" lon="8.3694589">
        <ele>1592.2</ele>
        <time>2026-09-15T10:15:30Z</time>
        <extensions>
          <gpxdata:distance>440.84</gpxdata:distance>
          <gpxdata:speed>0.502</gpxdata:speed>
        </extensions>
      </trkpt>
      <trkpt lat="46.3211160" lon="8.3687819">
        <ele>1600.0</ele>
        <time>2026-09-15T10:17:06Z</time>
        <extensions>
          <gpxdata:distance>493.49</gpxdata:distance>
          <gpxdata:speed>0.550</gpxdata:speed>
        </extensions>
      </trkpt>
      <trkpt lat="46.3208950" lon="8.3682459">
        <ele>1612.9</ele>
        <time>2026-09-15T10:18:40Z</time>
        <extensions>
          <gpxdata:distance>541.43</gpxdata:distance>
          <gpxdata:speed>0.507</gpxdata:speed>
        </extensions>
      </trkpt>
      <trkpt lat="46.3211410" lon="8.3679519">
        <ele>1620.4</ele>
        <time>2026-09-15T10:19:50Z</time>
        <extensions>
          <gpxdata:distance>576.90</gpxdata:distance>
          <gpxdata:speed>0.506</gpxdata:speed>
        </extensions>
      </trkpt>
      <trkpt lat="46.3211340" lon="8.3676399">
        <ele>1628.4</ele>
        <time>2026-09-15T10:20:38Z</time>
        <extensions>
          <gpxdata:distance>600.87</gpxdata:distance>
          <gpxdata:speed>0.500</gpxdata:speed>
        </extensions>
      </trkpt>
      <trkpt lat="46.3211890" lon="8.3674849">
        <ele>1633.9</ele>
        <time>2026-09-15T10:21:02Z</time>
        <extensions>
          <gpxdata:distance>614.25</gpxdata:distance>
          <gpxdata:speed>0.554</gpxdata:speed>
        </extensions>
      </trkpt>
      <trkpt lat="46.3209320" lon="8.3669999">
        <ele>1643.2</ele>
        <time>2026-09-15T10:22:17Z</time>
        <extensions>
          <gpxdata:distance>661.20</gpxdata:distance>
          <gpxdata:speed>0.631</gpxdata:speed>
        </extensions>
      </trkpt>
      <trkpt lat="46.3209290" lon="8.3663509">
        <ele>1660.2</ele>
        <time>2026-09-15T10:23:54Z</time>
        <extensions>
          <gpxdata:distance>711.04</gpxdata:distance>
          <gpxdata:speed>0.512</gpxdata:speed>
        </extensions>
      </trkpt>
      <trkpt lat="46.3211470" lon="8.3660299">
        <ele>1678.0</ele>
        <time>2026-09-15T10:25:09Z</time>
        <extensions>
          <gpxdata:distance>745.61</gpxdata:distance>
          <gpxdata:speed>0.461</gpxdata:speed>
        </extensions>
      </trkpt>
      <trkpt lat="46.3211660" lon="8.3658999">
        <ele>1682.7</ele>
        <time>2026-09-15T10:25:31Z</time>
        <extensions>
          <gpxdata:distance>755.81</gpxdata:distance>
          <gpxdata:speed>0.461</gpxdata:speed>
        </extensions>
      </trkpt>
      <trkpt lat="46.3212760" lon="8.3657459">
        <ele>1692.2</ele>
        <time>2026-09-15T10:26:08Z</time>
        <extensions>
          <gpxdata:distance>772.83</gpxdata:distance>
          <gpxdata:speed>0.461</gpxdata:speed>
        </extensions>
      </trkpt>
      <trkpt lat="46.3212160" lon="8.3652909">
        <ele>1703.4</ele>
        <time>2026-09-15T10:27:25Z</time>
        <extensions>
          <gpxdata:distance>808.40</gpxdata:distance>
          <gpxdata:speed>0.461</gpxdata:speed>
        </extensions>
      </trkpt>
      <trkpt lat="46.3212460" lon="8.3649668">
        <ele>1717.3</ele>
        <time>2026-09-15T10:28:20Z</time>
        <extensions>
          <gpxdata:distance>833.51</gpxdata:distance>
          <gpxdata:speed>0.461</gpxdata:speed>
        </extensions>
      </trkpt>
      <trkpt lat="46.3213540" lon="8.3649038">
        <ele>1726.0</ele>
        <time>2026-09-15T10:28:48Z</time>
        <extensions>
          <gpxdata:distance>846.46</gpxdata:distance>
          <gpxdata:speed>0.461</gpxdata:speed>
        </extensions>
      </trkpt>
      <trkpt lat="46.3219900" lon="8.3653299">
        <ele>1759.4</ele>
        <time>2026-09-15T10:31:37Z</time>
        <extensions>
          <gpxdata:distance>924.38</gpxdata:distance>
          <gpxdata:speed>0.461</gpxdata:speed>
        </extensions>
      </trkpt>
      <trkpt lat="46.3223750" lon="8.3655179">
        <ele>1767.4</ele>
        <time>2026-09-15T10:33:14Z</time>
        <extensions>
          <gpxdata:distance>969.56</gpxdata:distance>
          <gpxdata:speed>0.461</gpxdata:speed>
        </extensions>
      </trkpt>
      <trkpt lat="46.3226880" lon="8.3657699">
        <ele>1773.8</ele>
        <time>2026-09-15T10:34:41Z</time>
        <extensions>
          <gpxdata:distance>1009.38</gpxdata:distance>
          <gpxdata:speed>0.461</gpxdata:speed>
        </extensions>
      </trkpt>
      <trkpt lat="46.3229320" lon="8.3656189">
        <ele>1788.8</ele>
        <time>2026-09-15T10:35:45Z</time>
        <extensions>
          <gpxdata:distance>1038.89</gpxdata:distance>
          <gpxdata:speed>0.461</gpxdata:speed>
        </extensions>
      </trkpt>
      <trkpt lat="46.3228970" lon="8.3654619">
        <ele>1796.1</ele>
        <time>2026-09-15T10:36:12Z</time>
        <extensions>
          <gpxdata:distance>1051.55</gpxdata:distance>
          <gpxdata:speed>0.461</gpxdata:speed>
        </extensions>
      </trkpt>
      <trkpt lat="46.3229790" lon="8.3654119">
        <ele>1799.3</ele>
        <time>2026-09-15T10:36:34Z</time>
        <extensions>
          <gpxdata:distance>1061.45</gpxdata:distance>
          <gpxdata:speed>0.461</gpxdata:speed>
        </extensions>
      </trkpt>
      <trkpt lat="46.3229730" lon="8.3649959">
        <ele>1811.9</ele>
        <time>2026-09-15T10:37:43Z</time>
        <extensions>
          <gpxdata:distance>1093.40</gpxdata:distance>
          <gpxdata:speed>0.461</gpxdata:speed>
        </extensions>
      </trkpt>
      <trkpt lat="46.3231080" lon="8.3649599">
        <ele>1814.5</ele>
        <time>2026-09-15T10:38:16Z</time>
        <extensions>
          <gpxdata:distance>1108.66</gpxdata:distance>
          <gpxdata:speed>0.461</gpxdata:speed>
        </extensions>
      </trkpt>
      <trkpt lat="46.3231100" lon="8.3647909">
        <ele>1820.4</ele>
        <time>2026-09-15T10:38:44Z</time>
        <extensions>
          <gpxdata:distance>1121.64</gpxdata:distance>
          <gpxdata:speed>0.461</gpxdata:speed>
        </extensions>
      </trkpt>
      <trkpt lat="46.3232910" lon="8.3645989">
        <ele>1829.9</ele>
        <time>2026-09-15T10:39:38Z</time>
        <extensions>
          <gpxdata:distance>1146.59</gpxdata:distance>
          <gpxdata:speed>0.461</gpxdata:speed>
        </extensions>
      </trkpt>
      <trkpt lat="46.3234200" lon="8.3642769">
        <ele>1843.7</ele>
        <time>2026-09-15T10:40:40Z</time>
        <extensions>
          <gpxdata:distance>1175.18</gpxdata:distance>
          <gpxdata:speed>0.461</gpxdata:speed>
        </extensions>
      </trkpt>
      <trkpt lat="46.3237170" lon="8.3642429">
        <ele>1854.0</ele>
        <time>2026-09-15T10:41:52Z</time>
        <extensions>
          <gpxdata:distance>1208.31</gpxdata:distance>
          <gpxdata:speed>0.461</gpxdata:speed>
        </extensions>
      </trkpt>
      <trkpt lat="46.3239770" lon="8.3643639">
        <ele>1858.7</ele>
        <time>2026-09-15T10:42:58Z</time>
        <extensions>
          <gpxdata:distance>1238.67</gpxdata:distance>
          <gpxdata:speed>0.461</gpxdata:speed>
        </extensions>
      </trkpt>
      <trkpt lat="46.3239750" lon="8.3635199">
        <ele>1878.3</ele>
        <time>2026-09-15T10:45:18Z</time>
        <extensions>
          <gpxdata:distance>1303.48</gpxdata:distance>
          <gpxdata:speed>0.461</gpxdata:speed>
        </extensions>
      </trkpt>
      <trkpt lat="46.3240590" lon="8.3630928">
        <ele>1888.8</ele>
        <time>2026-09-15T10:46:32Z</time>
        <extensions>
          <gpxdata:distance>1337.58</gpxdata:distance>
          <gpxdata:speed>0.461</gpxdata:speed>
        </extensions>
      </trkpt>
      <trkpt lat="46.3240620" lon="8.3627418">
        <ele>1895.2</ele>
        <time>2026-09-15T10:47:30Z</time>
        <extensions>
          <gpxdata:distance>1364.54</gpxdata:distance>
          <gpxdata:speed>0.461</gpxdata:speed>
        </extensions>
      </trkpt>
      <trkpt lat="46.3239580" lon="8.3622468">
        <ele>1905.0</ele>
        <time>2026-09-15T10:48:56Z</time>
        <extensions>
          <gpxdata:distance>1404.27</gpxdata:distance>
          <gpxdata:speed>0.461</gpxdata:speed>
        </extensions>
      </trkpt>
      <trkpt lat="46.3237250" lon="8.3621908">
        <ele>1906.4</ele>
        <time>2026-09-15T10:49:53Z</time>
        <extensions>
          <gpxdata:distance>1430.53</gpxdata:distance>
          <gpxdata:speed>0.461</gpxdata:speed>
        </extensions>
      </trkpt>
      <trkpt lat="46.3230040" lon="8.3611918">
        <ele>1923.1</ele>
        <time>2026-09-15T10:53:29Z</time>
        <extensions>
          <gpxdata:distance>1541.49</gpxdata:distance>
          <gpxdata:speed>0.514</gpxdata:speed>
        </extensions>
      </trkpt>
      <trkpt lat="46.3223430" lon="8.3606618">
        <ele>1937.7</ele>
        <time>2026-09-15T10:55:46Z</time>
        <extensions>
          <gpxdata:distance>1625.51</gpxdata:distance>
          <gpxdata:speed>0.616</gpxdata:speed>
        </extensions>
      </trkpt>
      <trkpt lat="46.3221220" lon="8.3601897">
        <ele>1934.3</ele>
        <time>2026-09-15T10:56:54Z</time>
        <extensions>
          <gpxdata:distance>1669.31</gpxdata:distance>
          <gpxdata:speed>0.639</gpxdata:speed>
        </extensions>
      </trkpt>
      <trkpt lat="46.3217480" lon="8.3597167">
        <ele>1936.4</ele>
        <time>2026-09-15T10:58:21Z</time>
        <extensions>
          <gpxdata:distance>1724.52</gpxdata:distance>
          <gpxdata:speed>0.634</gpxdata:speed>
        </extensions>
      </trkpt>
      <trkpt lat="46.3216420" lon="8.3594547">
        <ele>1938.7</ele>
        <time>2026-09-15T10:58:56Z</time>
        <extensions>
          <gpxdata:distance>1747.84</gpxdata:distance>
          <gpxdata:speed>0.665</gpxdata:speed>
        </extensions>
      </trkpt>
      <trkpt lat="46.3213120" lon="8.3590337">
        <ele>1940.8</ele>
        <time>2026-09-15T11:00:04Z</time>
        <extensions>
          <gpxdata:distance>1796.74</gpxdata:distance>
          <gpxdata:speed>0.721</gpxdata:speed>
        </extensions>
      </trkpt>
      <trkpt lat="46.3210570" lon="8.3583797">
        <ele>1940.4</ele>
        <time>2026-09-15T11:01:19Z</time>
        <extensions>
          <gpxdata:distance>1854.42</gpxdata:distance>
          <gpxdata:speed>0.774</gpxdata:speed>
        </extensions>
      </trkpt>
      <trkpt lat="46.3208250" lon="8.3581557">
        <ele>1941.4</ele>
        <time>2026-09-15T11:01:57Z</time>
        <extensions>
          <gpxdata:distance>1885.43</gpxdata:distance>
          <gpxdata:speed>0.818</gpxdata:speed>
        </extensions>
      </trkpt>
      <trkpt lat="46.3204250" lon="8.3575387">
        <ele>1949.1</ele>
        <time>2026-09-15T11:03:18Z</time>
        <extensions>
          <gpxdata:distance>1950.41</gpxdata:distance>
          <gpxdata:speed>0.801</gpxdata:speed>
        </extensions>
      </trkpt>
      <trkpt lat="46.3200580" lon="8.3573377">
        <ele>1953.0</ele>
        <time>2026-09-15T11:04:09Z</time>
        <extensions>
          <gpxdata:distance>1994.04</gpxdata:distance>
          <gpxdata:speed>0.843</gpxdata:speed>
        </extensions>
      </trkpt>
      <trkpt lat="46.3195540" lon="8.3572637">
        <ele>1964.9</ele>
        <time>2026-09-15T11:05:16Z</time>
        <extensions>
          <gpxdata:distance>2050.37</gpxdata:distance>
          <gpxdata:speed>0.849</gpxdata:speed>
        </extensions>
      </trkpt>
      <trkpt lat="46.3189720" lon="8.3569426">
        <ele>1984.7</ele>
        <time>2026-09-15T11:06:51Z</time>
        <extensions>
          <gpxdata:distance>2119.63</gpxdata:distance>
          <gpxdata:speed>0.724</gpxdata:speed>
        </extensions>
      </trkpt>
      <trkpt lat="46.3189200" lon="8.3566946">
        <ele>1995.1</ele>
        <time>2026-09-15T11:07:22Z</time>
        <extensions>
          <gpxdata:distance>2139.53</gpxdata:distance>
          <gpxdata:speed>0.651</gpxdata:speed>
        </extensions>
      </trkpt>
      <trkpt lat="46.3182220" lon="8.3563196">
        <ele>2028.9</ele>
        <time>2026-09-15T11:09:30Z</time>
        <extensions>
          <gpxdata:distance>2222.31</gpxdata:distance>
          <gpxdata:speed>0.645</gpxdata:speed>
        </extensions>
      </trkpt>
      <trkpt lat="46.3178370" lon="8.3560146">
        <ele>2047.1</ele>
        <time>2026-09-15T11:10:58Z</time>
        <extensions>
          <gpxdata:distance>2271.11</gpxdata:distance>
          <gpxdata:speed>0.559</gpxdata:speed>
        </extensions>
      </trkpt>
      <trkpt lat="46.3178030" lon="8.3558316">
        <ele>2056.0</ele>
        <time>2026-09-15T11:11:29Z</time>
        <extensions>
          <gpxdata:distance>2285.67</gpxdata:distance>
          <gpxdata:speed>0.461</gpxdata:speed>
        </extensions>
      </trkpt>
      <trkpt lat="46.3178850" lon="8.3557036">
        <ele>2059.8</ele>
        <time>2026-09-15T11:11:58Z</time>
        <extensions>
          <gpxdata:distance>2299.08</gpxdata:distance>
          <gpxdata:speed>0.461</gpxdata:speed>
        </extensions>
      </trkpt>
      <trkpt lat="46.3177520" lon="8.3554416">
        <ele>2067.3</ele>
        <time>2026-09-15T11:12:52Z</time>
        <extensions>
          <gpxdata:distance>2324.05</gpxdata:distance>
          <gpxdata:speed>0.461</gpxdata:speed>
        </extensions>
      </trkpt>
      <trkpt lat="46.3177281" lon="8.3550386">
        <ele>2061.5</ele>
        <time>2026-09-15T11:14:00Z</time>
        <extensions>
          <gpxdata:distance>2355.11</gpxdata:distance>
          <gpxdata:speed>0.461</gpxdata:speed>
        </extensions>
      </trkpt>
      <trkpt lat="46.3175231" lon="8.3547756">
        <ele>2043.8</ele>
        <time>2026-09-15T11:14:59Z</time>
        <extensions>
          <gpxdata:distance>2385.57</gpxdata:distance>
          <gpxdata:speed>0.516</gpxdata:speed>
        </extensions>
      </trkpt>
      <trkpt lat="46.3177041" lon="8.3546746">
        <ele>2044.9</ele>
        <time>2026-09-15T11:15:34Z</time>
        <extensions>
          <gpxdata:distance>2407.14</gpxdata:distance>
          <gpxdata:speed>0.614</gpxdata:speed>
        </extensions>
      </trkpt>
      <trkpt lat="46.3175891" lon="8.3545166">
        <ele>2033.6</ele>
        <time>2026-09-15T11:16:00Z</time>
        <extensions>
          <gpxdata:distance>2424.76</gpxdata:distance>
          <gpxdata:speed>0.667</gpxdata:speed>
        </extensions>
      </trkpt>
      <trkpt lat="46.3177841" lon="8.3537026">
        <ele>2021.9</ele>
        <time>2026-09-15T11:17:08Z</time>
        <extensions>
          <gpxdata:distance>2490.93</gpxdata:distance>
          <gpxdata:speed>0.979</gpxdata:speed>
        </extensions>
      </trkpt>
      <trkpt lat="46.3180241" lon="8.3529406">
        <ele>2018.5</ele>
        <time>2026-09-15T11:18:20Z</time>
        <extensions>
          <gpxdata:distance>2555.25</gpxdata:distance>
          <gpxdata:speed>0.895</gpxdata:speed>
        </extensions>
      </trkpt>
      <trkpt lat="46.3180181" lon="8.3525376">
        <ele>2020.2</ele>
        <time>2026-09-15T11:18:54Z</time>
        <extensions>
          <gpxdata:distance>2586.20</gpxdata:distance>
          <gpxdata:speed>0.912</gpxdata:speed>
        </extensions>
      </trkpt>
      <trkpt lat="46.3178081" lon="8.3519106">
        <ele>2024.1</ele>
        <time>2026-09-15T11:19:53Z</time>
        <extensions>
          <gpxdata:distance>2639.72</gpxdata:distance>
          <gpxdata:speed>0.899</gpxdata:speed>
        </extensions>
      </trkpt>
      <trkpt lat="46.3176521" lon="8.3511425">
        <ele>2028.0</ele>
        <time>2026-09-15T11:21:02Z</time>
        <extensions>
          <gpxdata:distance>2701.21</gpxdata:distance>
          <gpxdata:speed>0.898</gpxdata:speed>
        </extensions>
      </trkpt>
      <trkpt lat="46.3174421" lon="8.3503985">
        <ele>2040.7</ele>
        <time>2026-09-15T11:22:07Z</time>
        <extensions>
          <gpxdata:distance>2762.93</gpxdata:distance>
          <gpxdata:speed>0.947</gpxdata:speed>
        </extensions>
      </trkpt>
      <trkpt lat="46.3172371" lon="8.3490445">
        <ele>2054.6</ele>
        <time>2026-09-15T11:23:58Z</time>
        <extensions>
          <gpxdata:distance>2869.38</gpxdata:distance>
          <gpxdata:speed>0.956</gpxdata:speed>
        </extensions>
      </trkpt>
      <trkpt lat="46.3169221" lon="8.3479485">
        <ele>2068.4</ele>
        <time>2026-09-15T11:25:39Z</time>
        <extensions>
          <gpxdata:distance>2960.55</gpxdata:distance>
          <gpxdata:speed>0.905</gpxdata:speed>
        </extensions>
      </trkpt>
      <trkpt lat="46.3168291" lon="8.3471165">
        <ele>2083.1</ele>
        <time>2026-09-15T11:27:00Z</time>
        <extensions>
          <gpxdata:distance>3025.28</gpxdata:distance>
          <gpxdata:speed>0.800</gpxdata:speed>
        </extensions>
      </trkpt>
      <trkpt lat="46.3168271" lon="8.3462595">
        <ele>2100.1</ele>
        <time>2026-09-15T11:28:37Z</time>
        <extensions>
          <gpxdata:distance>3091.10</gpxdata:distance>
          <gpxdata:speed>0.679</gpxdata:speed>
        </extensions>
      </trkpt>
      <trkpt lat="46.3173071" lon="8.3458785">
        <ele>2124.9</ele>
        <time>2026-09-15T11:30:12Z</time>
        <extensions>
          <gpxdata:distance>3151.97</gpxdata:distance>
          <gpxdata:speed>0.641</gpxdata:speed>
        </extensions>
      </trkpt>
      <trkpt lat="46.3171291" lon="8.3445634">
        <ele>2155.9</ele>
        <time>2026-09-15T11:32:53Z</time>
        <extensions>
          <gpxdata:distance>3254.88</gpxdata:distance>
          <gpxdata:speed>0.638</gpxdata:speed>
        </extensions>
      </trkpt>
      <trkpt lat="46.3167331" lon="8.3434144">
        <ele>2178.7</ele>
        <time>2026-09-15T11:35:41Z</time>
        <extensions>
          <gpxdata:distance>3353.50</gpxdata:distance>
          <gpxdata:speed>0.587</gpxdata:speed>
        </extensions>
      </trkpt>
      <trkpt lat="46.3169761" lon="8.3433924">
        <ele>2201.3</ele>
        <time>2026-09-15T11:36:40Z</time>
        <extensions>
          <gpxdata:distance>3380.58</gpxdata:distance>
          <gpxdata:speed>0.461</gpxdata:speed>
        </extensions>
      </trkpt>
      <trkpt lat="46.3167832" lon="8.3427924">
        <ele>2195.6</ele>
        <time>2026-09-15T11:38:16Z</time>
        <extensions>
          <gpxdata:distance>3431.40</gpxdata:distance>
          <gpxdata:speed>0.530</gpxdata:speed>
        </extensions>
      </trkpt>
      <trkpt lat="46.3166232" lon="8.3414784">
        <ele>2213.7</ele>
        <time>2026-09-15T11:41:40Z</time>
        <extensions>
          <gpxdata:distance>3533.87</gpxdata:distance>
          <gpxdata:speed>0.501</gpxdata:speed>
        </extensions>
      </trkpt>
      <trkpt lat="46.3165032" lon="8.3407494">
        <ele>2227.5</ele>
        <time>2026-09-15T11:43:45Z</time>
        <extensions>
          <gpxdata:distance>3591.43</gpxdata:distance>
          <gpxdata:speed>0.461</gpxdata:speed>
        </extensions>
      </trkpt>
      <trkpt lat="46.3161462" lon="8.3392634">
        <ele>2246.7</ele>
        <time>2026-09-15T11:47:44Z</time>
        <extensions>
          <gpxdata:distance>3712.26</gpxdata:distance>
          <gpxdata:speed>0.506</gpxdata:speed>
        </extensions>
      </trkpt>
      <trkpt lat="46.3160292" lon="8.3381053">
        <ele>2272.3</ele>
        <time>2026-09-15T11:50:47Z</time>
        <extensions>
          <gpxdata:distance>3802.15</gpxdata:distance>
          <gpxdata:speed>0.491</gpxdata:speed>
        </extensions>
      </trkpt>
      <trkpt lat="46.3161192" lon="8.3369643">
        <ele>2295.5</ele>
        <time>2026-09-15T11:53:33Z</time>
        <extensions>
          <gpxdata:distance>3890.35</gpxdata:distance>
          <gpxdata:speed>0.532</gpxdata:speed>
        </extensions>
      </trkpt>
      <trkpt lat="46.3160882" lon="8.3363143">
        <ele>2314.0</ele>
        <time>2026-09-15T11:55:06Z</time>
        <extensions>
          <gpxdata:distance>3940.39</gpxdata:distance>
          <gpxdata:speed>0.534</gpxdata:speed>
        </extensions>
      </trkpt>
      <trkpt lat="46.3160112" lon="8.3357943">
        <ele>2324.6</ele>
        <time>2026-09-15T11:56:24Z</time>
        <extensions>
          <gpxdata:distance>3981.23</gpxdata:distance>
          <gpxdata:speed>0.527</gpxdata:speed>
        </extensions>
      </trkpt>
      <trkpt lat="46.3157542" lon="8.3353093">
        <ele>2334.9</ele>
        <time>2026-09-15T11:57:39Z</time>
        <extensions>
          <gpxdata:distance>4028.18</gpxdata:distance>
          <gpxdata:speed>0.625</gpxdata:speed>
        </extensions>
      </trkpt>
      <trkpt lat="46.3153272" lon="8.3347703">
        <ele>2345.1</ele>
        <time>2026-09-15T11:59:34Z</time>
        <extensions>
          <gpxdata:distance>4091.17</gpxdata:distance>
          <gpxdata:speed>0.549</gpxdata:speed>
        </extensions>
      </trkpt>
      <trkpt lat="46.3152862" lon="8.3342633">
        <ele>2332.4</ele>
        <time>2026-09-15T12:00:34Z</time>
        <extensions>
          <gpxdata:distance>4130.37</gpxdata:distance>
          <gpxdata:speed>0.648</gpxdata:speed>
        </extensions>
      </trkpt>
      <trkpt lat="46.3152902" lon="8.3337433">
        <ele>2323.8</ele>
        <time>2026-09-15T12:01:37Z</time>
        <extensions>
          <gpxdata:distance>4170.31</gpxdata:distance>
          <gpxdata:speed>0.636</gpxdata:speed>
        </extensions>
      </trkpt>
      <trkpt lat="46.3153522" lon="8.3326673">
        <ele>2315.6</ele>
        <time>2026-09-15T12:03:38Z</time>
        <extensions>
          <gpxdata:distance>4253.24</gpxdata:distance>
          <gpxdata:speed>0.686</gpxdata:speed>
        </extensions>
      </trkpt>
      <trkpt lat="46.3151213" lon="8.3322613">
        <ele>2300.1</ele>
        <time>2026-09-15T12:04:24Z</time>
        <extensions>
          <gpxdata:distance>4293.63</gpxdata:distance>
          <gpxdata:speed>0.868</gpxdata:speed>
        </extensions>
      </trkpt>
      <trkpt lat="46.3149273" lon="8.3318553">
        <ele>2292.9</ele>
        <time>2026-09-15T12:05:02Z</time>
        <extensions>
          <gpxdata:distance>4331.54</gpxdata:distance>
          <gpxdata:speed>1.005</gpxdata:speed>
        </extensions>
      </trkpt>
      <trkpt lat="46.3146643" lon="8.3309552">
        <ele>2284.9</ele>
        <time>2026-09-15T12:06:22Z</time>
        <extensions>
          <gpxdata:distance>4406.61</gpxdata:distance>
          <gpxdata:speed>0.935</gpxdata:speed>
        </extensions>
      </trkpt>
      <trkpt lat="46.3143273" lon="8.3291322">
        <ele>2234.5</ele>
        <time>2026-09-15T12:08:58Z</time>
        <extensions>
          <gpxdata:distance>4551.54</gpxdata:distance>
          <gpxdata:speed>0.929</gpxdata:speed>
        </extensions>
      </trkpt>
      <trkpt lat="46.3144023" lon="8.3288472">
        <ele>2218.8</ele>
        <time>2026-09-15T12:09:25Z</time>
        <extensions>
          <gpxdata:distance>4574.97</gpxdata:distance>
          <gpxdata:speed>0.872</gpxdata:speed>
        </extensions>
      </trkpt>
      <trkpt lat="46.3145023" lon="8.3286152">
        <ele>2210.9</ele>
        <time>2026-09-15T12:09:49Z</time>
        <extensions>
          <gpxdata:distance>4595.97</gpxdata:distance>
          <gpxdata:speed>0.872</gpxdata:speed>
        </extensions>
      </trkpt>
      <trkpt lat="46.3147683" lon="8.3280612">
        <ele>2221.3</ele>
        <time>2026-09-15T12:10:49Z</time>
        <extensions>
          <gpxdata:distance>4647.79</gpxdata:distance>
          <gpxdata:speed>0.872</gpxdata:speed>
        </extensions>
      </trkpt>
      <trkpt lat="46.3148023" lon="8.3271402">
        <ele>2216.9</ele>
        <time>2026-09-15T12:12:09Z</time>
        <extensions>
          <gpxdata:distance>4718.62</gpxdata:distance>
          <gpxdata:speed>0.879</gpxdata:speed>
        </extensions>
      </trkpt>
      <trkpt lat="46.3148333" lon="8.3254402">
        <ele>2227.3</ele>
        <time>2026-09-15T12:14:28Z</time>
        <extensions>
          <gpxdata:distance>4849.23</gpxdata:distance>
          <gpxdata:speed>0.938</gpxdata:speed>
        </extensions>
      </trkpt>
      <trkpt lat="46.3147573" lon="8.3248282">
        <ele>2224.8</ele>
        <time>2026-09-15T12:15:21Z</time>
        <extensions>
          <gpxdata:distance>4896.99</gpxdata:distance>
          <gpxdata:speed>0.917</gpxdata:speed>
        </extensions>
      </trkpt>
      <trkpt lat="46.3147874" lon="8.3244392">
        <ele>2235.6</ele>
        <time>2026-09-15T12:15:54Z</time>
        <extensions>
          <gpxdata:distance>4927.05</gpxdata:distance>
          <gpxdata:speed>0.898</gpxdata:speed>
        </extensions>
      </trkpt>
      <trkpt lat="46.3149964" lon="8.3241702">
        <ele>2247.2</ele>
        <time>2026-09-15T12:16:28Z</time>
        <extensions>
          <gpxdata:distance>4958.15</gpxdata:distance>
          <gpxdata:speed>0.928</gpxdata:speed>
        </extensions>
      </trkpt>
      <trkpt lat="46.3153123" lon="8.3240582">
        <ele>2242.3</ele>
        <time>2026-09-15T12:17:05Z</time>
        <extensions>
          <gpxdata:distance>4994.31</gpxdata:distance>
          <gpxdata:speed>0.968</gpxdata:speed>
        </extensions>
      </trkpt>
      <trkpt lat="46.3158413" lon="8.3243012">
        <ele>2232.3</ele>
        <time>2026-09-15T12:18:10Z</time>
        <extensions>
          <gpxdata:distance>5056.02</gpxdata:distance>
          <gpxdata:speed>0.941</gpxdata:speed>
        </extensions>
      </trkpt>
      <trkpt lat="46.3165053" lon="8.3244932">
        <ele>2218.7</ele>
        <time>2026-09-15T12:19:28Z</time>
        <extensions>
          <gpxdata:distance>5131.32</gpxdata:distance>
          <gpxdata:speed>0.975</gpxdata:speed>
        </extensions>
      </trkpt>
      <trkpt lat="46.3168303" lon="8.3243692">
        <ele>2210.7</ele>
        <time>2026-09-15T12:20:06Z</time>
        <extensions>
          <gpxdata:distance>5168.69</gpxdata:distance>
          <gpxdata:speed>0.986</gpxdata:speed>
        </extensions>
      </trkpt>
      <trkpt lat="46.3173953" lon="8.3245082">
        <ele>2193.6</ele>
        <time>2026-09-15T12:21:12Z</time>
        <extensions>
          <gpxdata:distance>5232.41</gpxdata:distance>
          <gpxdata:speed>0.954</gpxdata:speed>
        </extensions>
      </trkpt>
      <trkpt lat="46.3177803" lon="8.3248262">
        <ele>2184.6</ele>
        <time>2026-09-15T12:22:07Z</time>
        <extensions>
          <gpxdata:distance>5281.70</gpxdata:distance>
          <gpxdata:speed>0.896</gpxdata:speed>
        </extensions>
      </trkpt>
      <trkpt lat="46.3178523" lon="8.3248142">
        <ele>2182.5</ele>
        <time>2026-09-15T12:22:16Z</time>
        <extensions>
          <gpxdata:distance>5289.76</gpxdata:distance>
          <gpxdata:speed>0.901</gpxdata:speed>
        </extensions>
      </trkpt>
      <trkpt lat="46.3179063" lon="8.3247372">
        <ele>2179.3</ele>
        <time>2026-09-15T12:22:25Z</time>
        <extensions>
          <gpxdata:distance>5298.19</gpxdata:distance>
          <gpxdata:speed>0.938</gpxdata:speed>
        </extensions>
      </trkpt>
      <trkpt lat="46.3179543" lon="8.3244132">
        <ele>2174.9</ele>
        <time>2026-09-15T12:22:54Z</time>
        <extensions>
          <gpxdata:distance>5323.63</gpxdata:distance>
          <gpxdata:speed>0.875</gpxdata:speed>
        </extensions>
      </trkpt>
      <trkpt lat="46.3181553" lon="8.3240532">
        <ele>2168.7</ele>
        <time>2026-09-15T12:23:35Z</time>
        <extensions>
          <gpxdata:distance>5359.19</gpxdata:distance>
          <gpxdata:speed>0.872</gpxdata:speed>
        </extensions>
      </trkpt>
      <trkpt lat="46.3184404" lon="8.3232262">
        <ele>2164.7</ele>
        <time>2026-09-15T12:24:54Z</time>
        <extensions>
          <gpxdata:distance>5430.17</gpxdata:distance>
          <gpxdata:speed>0.898</gpxdata:speed>
        </extensions>
      </trkpt>
      <trkpt lat="46.3186414" lon="8.3228532">
        <ele>2159.8</ele>
        <time>2026-09-15T12:25:34Z</time>
        <extensions>
          <gpxdata:distance>5466.50</gpxdata:distance>
          <gpxdata:speed>0.905</gpxdata:speed>
        </extensions>
      </trkpt>
      <trkpt lat="46.3192294" lon="8.3224212">
        <ele>2150.2</ele>
        <time>2026-09-15T12:26:54Z</time>
        <extensions>
          <gpxdata:distance>5539.82</gpxdata:distance>
          <gpxdata:speed>0.922</gpxdata:speed>
        </extensions>
      </trkpt>
      <trkpt lat="46.3198074" lon="8.3220802">
        <ele>2145.7</ele>
        <time>2026-09-15T12:28:09Z</time>
        <extensions>
          <gpxdata:distance>5609.22</gpxdata:distance>
          <gpxdata:speed>0.919</gpxdata:speed>
        </extensions>
      </trkpt>
      <trkpt lat="46.3198634" lon="8.3218082">
        <ele>2147.6</ele>
        <time>2026-09-15T12:28:34Z</time>
        <extensions>
          <gpxdata:distance>5631.02</gpxdata:distance>
          <gpxdata:speed>0.900</gpxdata:speed>
        </extensions>
      </trkpt>
      <trkpt lat="46.3199124" lon="8.3213942">
        <ele>2147.2</ele>
        <time>2026-09-15T12:29:09Z</time>
        <extensions>
          <gpxdata:distance>5663.27</gpxdata:distance>
          <gpxdata:speed>0.900</gpxdata:speed>
        </extensions>
      </trkpt>
      <trkpt lat="46.3199854" lon="8.3211742">
        <ele>2147.3</ele>
        <time>2026-09-15T12:29:30Z</time>
        <extensions>
          <gpxdata:distance>5682.02</gpxdata:distance>
          <gpxdata:speed>0.912</gpxdata:speed>
        </extensions>
      </trkpt>
      <trkpt lat="46.3200864" lon="8.3210202">
        <ele>2147.7</ele>
        <time>2026-09-15T12:29:48Z</time>
        <extensions>
          <gpxdata:distance>5698.33</gpxdata:distance>
          <gpxdata:speed>0.924</gpxdata:speed>
        </extensions>
      </trkpt>
      <trkpt lat="46.3197964" lon="8.3200152">
        <ele>2138.7</ele>
        <time>2026-09-15T12:31:18Z</time>
        <extensions>
          <gpxdata:distance>5781.97</gpxdata:distance>
          <gpxdata:speed>0.926</gpxdata:speed>
        </extensions>
      </trkpt>
      <trkpt lat="46.3197474" lon="8.3194302">
        <ele>2138.2</ele>
        <time>2026-09-15T12:32:07Z</time>
        <extensions>
          <gpxdata:distance>5827.22</gpxdata:distance>
          <gpxdata:speed>0.930</gpxdata:speed>
        </extensions>
      </trkpt>
      <trkpt lat="46.3197534" lon="8.3186642">
        <ele>2137.6</ele>
        <time>2026-09-15T12:33:09Z</time>
        <extensions>
          <gpxdata:distance>5886.05</gpxdata:distance>
          <gpxdata:speed>0.945</gpxdata:speed>
        </extensions>
      </trkpt>
      <trkpt lat="46.3198334" lon="8.3176531">
        <ele>2140.1</ele>
        <time>2026-09-15T12:34:28Z</time>
        <extensions>
          <gpxdata:distance>5964.21</gpxdata:distance>
          <gpxdata:speed>0.982</gpxdata:speed>
        </extensions>
      </trkpt>
      <trkpt lat="46.3198284" lon="8.3170811">
        <ele>2138.5</ele>
        <time>2026-09-15T12:35:13Z</time>
        <extensions>
          <gpxdata:distance>6008.14</gpxdata:distance>
          <gpxdata:speed>0.989</gpxdata:speed>
        </extensions>
      </trkpt>
      <trkpt lat="46.3198974" lon="8.3162901">
        <ele>2142.2</ele>
        <time>2026-09-15T12:36:14Z</time>
        <extensions>
          <gpxdata:distance>6069.37</gpxdata:distance>
          <gpxdata:speed>0.997</gpxdata:speed>
        </extensions>
      </trkpt>
      <trkpt lat="46.3198744" lon="8.3158101">
        <ele>2141.9</ele>
        <time>2026-09-15T12:36:51Z</time>
        <extensions>
          <gpxdata:distance>6106.32</gpxdata:distance>
          <gpxdata:speed>0.997</gpxdata:speed>
        </extensions>
      </trkpt>
      <trkpt lat="46.3200154" lon="8.3150331">
        <ele>2148.4</ele>
        <time>2026-09-15T12:37:53Z</time>
        <extensions>
          <gpxdata:distance>6168.01</gpxdata:distance>
          <gpxdata:speed>1.007</gpxdata:speed>
        </extensions>
      </trkpt>
      <trkpt lat="46.3200264" lon="8.3136311">
        <ele>2167.6</ele>
        <time>2026-09-15T12:39:49Z</time>
        <extensions>
          <gpxdata:distance>6275.68</gpxdata:distance>
          <gpxdata:speed>0.925</gpxdata:speed>
        </extensions>
      </trkpt>
      <trkpt lat="46.3197145" lon="8.3120941">
        <ele>2175.0</ele>
        <time>2026-09-15T12:42:12Z</time>
        <extensions>
          <gpxdata:distance>6398.71</gpxdata:distance>
          <gpxdata:speed>0.862</gpxdata:speed>
        </extensions>
      </trkpt>
      <trkpt lat="46.3193245" lon="8.3101010">
        <ele>2198.3</ele>
        <time>2026-09-15T12:45:31Z</time>
        <extensions>
          <gpxdata:distance>6557.79</gpxdata:distance>
          <gpxdata:speed>0.801</gpxdata:speed>
        </extensions>
      </trkpt>
      <trkpt lat="46.3190675" lon="8.3096680">
        <ele>2205.1</ele>
        <time>2026-09-15T12:46:28Z</time>
        <extensions>
          <gpxdata:distance>6601.64</gpxdata:distance>
          <gpxdata:speed>0.769</gpxdata:speed>
        </extensions>
      </trkpt>
      <trkpt lat="46.3186385" lon="8.3093370">
        <ele>2196.6</ele>
        <time>2026-09-15T12:47:35Z</time>
        <extensions>
          <gpxdata:distance>6655.69</gpxdata:distance>
          <gpxdata:speed>0.802</gpxdata:speed>
        </extensions>
      </trkpt>
      <trkpt lat="46.3183095" lon="8.3088380">
        <ele>2199.2</ele>
        <time>2026-09-15T12:48:42Z</time>
        <extensions>
          <gpxdata:distance>6708.67</gpxdata:distance>
          <gpxdata:speed>0.789</gpxdata:speed>
        </extensions>
      </trkpt>
      <trkpt lat="46.3179165" lon="8.3083640">
        <ele>2194.2</ele>
        <time>2026-09-15T12:49:51Z</time>
        <extensions>
          <gpxdata:distance>6765.54</gpxdata:distance>
          <gpxdata:speed>0.820</gpxdata:speed>
        </extensions>
      </trkpt>
      <trkpt lat="46.3176335" lon="8.3078400">
        <ele>2209.4</ele>
        <time>2026-09-15T12:50:58Z</time>
        <extensions>
          <gpxdata:distance>6816.63</gpxdata:distance>
          <gpxdata:speed>0.767</gpxdata:speed>
        </extensions>
      </trkpt>
      <trkpt lat="46.3171255" lon="8.3071700">
        <ele>2198.7</ele>
        <time>2026-09-15T12:52:30Z</time>
        <extensions>
          <gpxdata:distance>6893.04</gpxdata:distance>
          <gpxdata:speed>0.834</gpxdata:speed>
        </extensions>
      </trkpt>
      <trkpt lat="46.3168145" lon="8.3066460">
        <ele>2213.8</ele>
        <time>2026-09-15T12:53:33Z</time>
        <extensions>
          <gpxdata:distance>6946.10</gpxdata:distance>
          <gpxdata:speed>0.836</gpxdata:speed>
        </extensions>
      </trkpt>
      <trkpt lat="46.3165555" lon="8.3063820">
        <ele>2210.1</ele>
        <time>2026-09-15T12:54:14Z</time>
        <extensions>
          <gpxdata:distance>6981.32</gpxdata:distance>
          <gpxdata:speed>0.858</gpxdata:speed>
        </extensions>
      </trkpt>
      <trkpt lat="46.3161915" lon="8.3058050">
        <ele>2214.5</ele>
        <time>2026-09-15T12:55:19Z</time>
        <extensions>
          <gpxdata:distance>7041.34</gpxdata:distance>
          <gpxdata:speed>0.927</gpxdata:speed>
        </extensions>
      </trkpt>
      <trkpt lat="46.3163715" lon="8.3057040">
        <ele>2220.8</ele>
        <time>2026-09-15T12:55:42Z</time>
        <extensions>
          <gpxdata:distance>7062.80</gpxdata:distance>
          <gpxdata:speed>0.926</gpxdata:speed>
        </extensions>
      </trkpt>
      <trkpt lat="46.3162845" lon="8.3053520">
        <ele>2214.6</ele>
        <time>2026-09-15T12:56:14Z</time>
        <extensions>
          <gpxdata:distance>7091.51</gpxdata:distance>
          <gpxdata:speed>0.908</gpxdata:speed>
        </extensions>
      </trkpt>
      <trkpt lat="46.3163066" lon="8.3048720">
        <ele>2214.0</ele>
        <time>2026-09-15T12:56:54Z</time>
        <extensions>
          <gpxdata:distance>7128.46</gpxdata:distance>
          <gpxdata:speed>0.923</gpxdata:speed>
        </extensions>
      </trkpt>
      <trkpt lat="46.3165076" lon="8.3044729">
        <ele>2225.8</ele>
        <time>2026-09-15T12:57:41Z</time>
        <extensions>
          <gpxdata:distance>7166.39</gpxdata:distance>
          <gpxdata:speed>0.810</gpxdata:speed>
        </extensions>
      </trkpt>
      <trkpt lat="46.3166256" lon="8.3042929">
        <ele>2233.2</ele>
        <time>2026-09-15T12:58:03Z</time>
        <extensions>
          <gpxdata:distance>7185.45</gpxdata:distance>
          <gpxdata:speed>0.847</gpxdata:speed>
        </extensions>
      </trkpt>
      <trkpt lat="46.3167176" lon="8.3040609">
        <ele>2237.9</ele>
        <time>2026-09-15T12:58:33Z</time>
        <extensions>
          <gpxdata:distance>7206.00</gpxdata:distance>
          <gpxdata:speed>0.691</gpxdata:speed>
        </extensions>
      </trkpt>
      <trkpt lat="46.3167596" lon="8.3032169">
        <ele>2237.6</ele>
        <time>2026-09-15T12:59:52Z</time>
        <extensions>
          <gpxdata:distance>7270.98</gpxdata:distance>
          <gpxdata:speed>0.824</gpxdata:speed>
        </extensions>
      </trkpt>
      <trkpt lat="46.3169206" lon="8.3022329">
        <ele>2255.3</ele>
        <time>2026-09-15T13:01:43Z</time>
        <extensions>
          <gpxdata:distance>7348.65</gpxdata:distance>
          <gpxdata:speed>0.697</gpxdata:speed>
        </extensions>
      </trkpt>
      <trkpt lat="46.3169336" lon="8.3017139">
        <ele>2257.8</ele>
        <time>2026-09-15T13:02:41Z</time>
        <extensions>
          <gpxdata:distance>7388.53</gpxdata:distance>
          <gpxdata:speed>0.693</gpxdata:speed>
        </extensions>
      </trkpt>
      <trkpt lat="46.3170176" lon="8.3012089">
        <ele>2249.4</ele>
        <time>2026-09-15T13:03:30Z</time>
        <extensions>
          <gpxdata:distance>7428.42</gpxdata:distance>
          <gpxdata:speed>0.811</gpxdata:speed>
        </extensions>
      </trkpt>
      <trkpt lat="46.3173386" lon="8.3004219">
        <ele>2226.7</ele>
        <time>2026-09-15T13:04:45Z</time>
        <extensions>
          <gpxdata:distance>7498.62</gpxdata:distance>
          <gpxdata:speed>0.937</gpxdata:speed>
        </extensions>
      </trkpt>
      <trkpt lat="46.3176156" lon="8.2995949">
        <ele>2206.8</ele>
        <time>2026-09-15T13:05:56Z</time>
        <extensions>
          <gpxdata:distance>7569.20</gpxdata:distance>
          <gpxdata:speed>0.991</gpxdata:speed>
        </extensions>
      </trkpt>
      <trkpt lat="46.3178316" lon="8.2982749">
        <ele>2196.2</ele>
        <time>2026-09-15T13:07:47Z</time>
        <extensions>
          <gpxdata:distance>7673.38</gpxdata:distance>
          <gpxdata:speed>0.939</gpxdata:speed>
        </extensions>
      </trkpt>
      <trkpt lat="46.3177646" lon="8.2976499">
        <ele>2193.8</ele>
        <time>2026-09-15T13:08:39Z</time>
        <extensions>
          <gpxdata:distance>7721.96</gpxdata:distance>
          <gpxdata:speed>0.923</gpxdata:speed>
        </extensions>
      </trkpt>
      <trkpt lat="46.3175716" lon="8.2970499">
        <ele>2194.5</ele>
        <time>2026-09-15T13:09:35Z</time>
        <extensions>
          <gpxdata:distance>7772.79</gpxdata:distance>
          <gpxdata:speed>0.920</gpxdata:speed>
        </extensions>
      </trkpt>
      <trkpt lat="46.3175027" lon="8.2954779">
        <ele>2169.0</ele>
        <time>2026-09-15T13:11:49Z</time>
        <extensions>
          <gpxdata:distance>7893.76</gpxdata:distance>
          <gpxdata:speed>0.904</gpxdata:speed>
        </extensions>
      </trkpt>
      <trkpt lat="46.3178807" lon="8.2954189">
        <ele>2147.3</ele>
        <time>2026-09-15T13:12:36Z</time>
        <extensions>
          <gpxdata:distance>7936.03</gpxdata:distance>
          <gpxdata:speed>0.894</gpxdata:speed>
        </extensions>
      </trkpt>
      <trkpt lat="46.3178037" lon="8.2948589">
        <ele>2139.3</ele>
        <time>2026-09-15T13:13:26Z</time>
        <extensions>
          <gpxdata:distance>7979.88</gpxdata:distance>
          <gpxdata:speed>0.872</gpxdata:speed>
        </extensions>
      </trkpt>
      <trkpt lat="46.3176377" lon="8.2943109">
        <ele>2131.0</ele>
        <time>2026-09-15T13:14:19Z</time>
        <extensions>
          <gpxdata:distance>8025.84</gpxdata:distance>
          <gpxdata:speed>0.874</gpxdata:speed>
        </extensions>
      </trkpt>
      <trkpt lat="46.3175867" lon="8.2938558">
        <ele>2121.8</ele>
        <time>2026-09-15T13:14:59Z</time>
        <extensions>
          <gpxdata:distance>8061.24</gpxdata:distance>
          <gpxdata:speed>0.890</gpxdata:speed>
        </extensions>
      </trkpt>
      <trkpt lat="46.3176177" lon="8.2933888">
        <ele>2109.5</ele>
        <time>2026-09-15T13:15:39Z</time>
        <extensions>
          <gpxdata:distance>8097.27</gpxdata:distance>
          <gpxdata:speed>0.893</gpxdata:speed>
        </extensions>
      </trkpt>
      <trkpt lat="46.3180307" lon="8.2933958">
        <ele>2092.4</ele>
        <time>2026-09-15T13:16:32Z</time>
        <extensions>
          <gpxdata:distance>8143.20</gpxdata:distance>
          <gpxdata:speed>0.872</gpxdata:speed>
        </extensions>
      </trkpt>
      <trkpt lat="46.3179527" lon="8.2930958">
        <ele>2086.4</ele>
        <time>2026-09-15T13:17:00Z</time>
        <extensions>
          <gpxdata:distance>8167.82</gpxdata:distance>
          <gpxdata:speed>0.872</gpxdata:speed>
        </extensions>
      </trkpt>
      <trkpt lat="46.3178637" lon="8.2928998">
        <ele>2082.3</ele>
        <time>2026-09-15T13:17:20Z</time>
        <extensions>
          <gpxdata:distance>8185.83</gpxdata:distance>
          <gpxdata:speed>0.872</gpxdata:speed>
        </extensions>
      </trkpt>
      <trkpt lat="46.3177567" lon="8.2927288">
        <ele>2079.9</ele>
        <time>2026-09-15T13:17:41Z</time>
        <extensions>
          <gpxdata:distance>8203.55</gpxdata:distance>
          <gpxdata:speed>0.872</gpxdata:speed>
        </extensions>
      </trkpt>
      <trkpt lat="46.3175617" lon="8.2924018">
        <ele>2066.5</ele>
        <time>2026-09-15T13:18:19Z</time>
        <extensions>
          <gpxdata:distance>8236.73</gpxdata:distance>
          <gpxdata:speed>0.872</gpxdata:speed>
        </extensions>
      </trkpt>
      <trkpt lat="46.3173847" lon="8.2920478">
        <ele>2055.8</ele>
        <time>2026-09-15T13:18:57Z</time>
        <extensions>
          <gpxdata:distance>8270.30</gpxdata:distance>
          <gpxdata:speed>0.872</gpxdata:speed>
        </extensions>
      </trkpt>
      <trkpt lat="46.3178437" lon="8.2920298">
        <ele>2045.4</ele>
        <time>2026-09-15T13:19:56Z</time>
        <extensions>
          <gpxdata:distance>8321.35</gpxdata:distance>
          <gpxdata:speed>0.872</gpxdata:speed>
        </extensions>
      </trkpt>
      <trkpt lat="46.3182307" lon="8.2919318">
        <ele>2039.6</ele>
        <time>2026-09-15T13:20:46Z</time>
        <extensions>
          <gpxdata:distance>8365.04</gpxdata:distance>
          <gpxdata:speed>0.872</gpxdata:speed>
        </extensions>
      </trkpt>
      <trkpt lat="46.3189127" lon="8.2922409">
        <ele>2029.5</ele>
        <time>2026-09-15T13:22:17Z</time>
        <extensions>
          <gpxdata:distance>8444.50</gpxdata:distance>
          <gpxdata:speed>0.872</gpxdata:speed>
        </extensions>
      </trkpt>
      <trkpt lat="46.3191367" lon="8.2922579">
        <ele>2026.9</ele>
        <time>2026-09-15T13:22:46Z</time>
        <extensions>
          <gpxdata:distance>8469.44</gpxdata:distance>
          <gpxdata:speed>0.872</gpxdata:speed>
        </extensions>
      </trkpt>
      <trkpt lat="46.3194097" lon="8.2918978">
        <ele>2028.5</ele>
        <time>2026-09-15T13:23:31Z</time>
        <extensions>
          <gpxdata:distance>8510.51</gpxdata:distance>
          <gpxdata:speed>0.914</gpxdata:speed>
        </extensions>
      </trkpt>
      <trkpt lat="46.3196207" lon="8.2913168">
        <ele>2031.5</ele>
        <time>2026-09-15T13:24:25Z</time>
        <extensions>
          <gpxdata:distance>8560.92</gpxdata:distance>
          <gpxdata:speed>0.927</gpxdata:speed>
        </extensions>
      </trkpt>
      <trkpt lat="46.3196107" lon="8.2902518">
        <ele>2037.7</ele>
        <time>2026-09-15T13:25:56Z</time>
        <extensions>
          <gpxdata:distance>8642.71</gpxdata:distance>
          <gpxdata:speed>0.899</gpxdata:speed>
        </extensions>
      </trkpt>
      <trkpt lat="46.3197327" lon="8.2896698">
        <ele>2029.5</ele>
        <time>2026-09-15T13:26:47Z</time>
        <extensions>
          <gpxdata:distance>8689.42</gpxdata:distance>
          <gpxdata:speed>0.914</gpxdata:speed>
        </extensions>
      </trkpt>
      <trkpt lat="46.3197017" lon="8.2890068">
        <ele>2013.0</ele>
        <time>2026-09-15T13:27:44Z</time>
        <extensions>
          <gpxdata:distance>8740.45</gpxdata:distance>
          <gpxdata:speed>0.904</gpxdata:speed>
        </extensions>
      </trkpt>
      <trkpt lat="46.3201077" lon="8.2887928">
        <ele>2013.7</ele>
        <time>2026-09-15T13:28:35Z</time>
        <extensions>
          <gpxdata:distance>8788.50</gpxdata:distance>
          <gpxdata:speed>0.929</gpxdata:speed>
        </extensions>
      </trkpt>
      <trkpt lat="46.3199587" lon="8.2882708">
        <ele>2011.4</ele>
        <time>2026-09-15T13:29:22Z</time>
        <extensions>
          <gpxdata:distance>8831.87</gpxdata:distance>
          <gpxdata:speed>0.937</gpxdata:speed>
        </extensions>
      </trkpt>
      <trkpt lat="46.3197248" lon="8.2871248">
        <ele>1991.7</ele>
        <time>2026-09-15T13:31:02Z</time>
        <extensions>
          <gpxdata:distance>8923.64</gpxdata:distance>
          <gpxdata:speed>0.917</gpxdata:speed>
        </extensions>
      </trkpt>
      <trkpt lat="46.3197278" lon="8.2866318">
        <ele>1992.9</ele>
        <time>2026-09-15T13:31:43Z</time>
        <extensions>
          <gpxdata:distance>8961.50</gpxdata:distance>
          <gpxdata:speed>0.928</gpxdata:speed>
        </extensions>
      </trkpt>
      <trkpt lat="46.3196498" lon="8.2863188">
        <ele>1987.8</ele>
        <time>2026-09-15T13:32:11Z</time>
        <extensions>
          <gpxdata:distance>8987.06</gpxdata:distance>
          <gpxdata:speed>0.910</gpxdata:speed>
        </extensions>
      </trkpt>
      <trkpt lat="46.3197948" lon="8.2860998">
        <ele>1986.1</ele>
        <time>2026-09-15T13:32:37Z</time>
        <extensions>
          <gpxdata:distance>9010.35</gpxdata:distance>
          <gpxdata:speed>0.895</gpxdata:speed>
        </extensions>
      </trkpt>
      <trkpt lat="46.3202458" lon="8.2859908">
        <ele>1980.5</ele>
        <time>2026-09-15T13:33:31Z</time>
        <extensions>
          <gpxdata:distance>9061.20</gpxdata:distance>
          <gpxdata:speed>0.928</gpxdata:speed>
        </extensions>
      </trkpt>
      <trkpt lat="46.3203908" lon="8.2858368">
        <ele>1972.8</ele>
        <time>2026-09-15T13:33:53Z</time>
        <extensions>
          <gpxdata:distance>9081.19</gpxdata:distance>
          <gpxdata:speed>0.935</gpxdata:speed>
        </extensions>
      </trkpt>
      <trkpt lat="46.3206518" lon="8.2858798">
        <ele>1970.5</ele>
        <time>2026-09-15T13:34:25Z</time>
        <extensions>
          <gpxdata:distance>9110.40</gpxdata:distance>
          <gpxdata:speed>0.908</gpxdata:speed>
        </extensions>
      </trkpt>
      <trkpt lat="46.3209098" lon="8.2861698">
        <ele>1973.6</ele>
        <time>2026-09-15T13:35:05Z</time>
        <extensions>
          <gpxdata:distance>9146.72</gpxdata:distance>
          <gpxdata:speed>0.905</gpxdata:speed>
        </extensions>
      </trkpt>
      <trkpt lat="46.3210618" lon="8.2863928">
        <ele>1976.2</ele>
        <time>2026-09-15T13:35:32Z</time>
        <extensions>
          <gpxdata:distance>9170.78</gpxdata:distance>
          <gpxdata:speed>0.898</gpxdata:speed>
        </extensions>
      </trkpt>
      <trkpt lat="46.3213398" lon="8.2865138">
        <ele>1964.9</ele>
        <time>2026-09-15T13:36:08Z</time>
        <extensions>
          <gpxdata:distance>9203.06</gpxdata:distance>
          <gpxdata:speed>0.899</gpxdata:speed>
        </extensions>
      </trkpt>
      <trkpt lat="46.3217758" lon="8.2870918">
        <ele>1966.8</ele>
        <time>2026-09-15T13:37:20Z</time>
        <extensions>
          <gpxdata:distance>9268.79</gpxdata:distance>
          <gpxdata:speed>0.911</gpxdata:speed>
        </extensions>
      </trkpt>
      <trkpt lat="46.3220068" lon="8.2875238">
        <ele>1972.5</ele>
        <time>2026-09-15T13:38:04Z</time>
        <extensions>
          <gpxdata:distance>9310.74</gpxdata:distance>
          <gpxdata:speed>0.952</gpxdata:speed>
        </extensions>
      </trkpt>
      <trkpt lat="46.3222667" lon="8.2876578">
        <ele>1970.1</ele>
        <time>2026-09-15T13:38:36Z</time>
        <extensions>
          <gpxdata:distance>9341.42</gpxdata:distance>
          <gpxdata:speed>0.950</gpxdata:speed>
        </extensions>
      </trkpt>
      <trkpt lat="46.3230317" lon="8.2875138">
        <ele>1957.9</ele>
        <time>2026-09-15T13:40:08Z</time>
        <extensions>
          <gpxdata:distance>9427.20</gpxdata:distance>
          <gpxdata:speed>0.935</gpxdata:speed>
        </extensions>
      </trkpt>
      <trkpt lat="46.3233927" lon="8.2874678">
        <ele>1956.1</ele>
        <time>2026-09-15T13:40:50Z</time>
        <extensions>
          <gpxdata:distance>9467.50</gpxdata:distance>
          <gpxdata:speed>0.957</gpxdata:speed>
        </extensions>
      </trkpt>
      <trkpt lat="46.3236997" lon="8.2872388">
        <ele>1952.9</ele>
        <time>2026-09-15T13:41:30Z</time>
        <extensions>
          <gpxdata:distance>9505.90</gpxdata:distance>
          <gpxdata:speed>0.955</gpxdata:speed>
        </extensions>
      </trkpt>
      <trkpt lat="46.3240198" lon="8.2865948">
        <ele>1935.2</ele>
        <time>2026-09-15T13:42:38Z</time>
        <extensions>
          <gpxdata:distance>9566.83</gpxdata:distance>
          <gpxdata:speed>0.904</gpxdata:speed>
        </extensions>
      </trkpt>
      <trkpt lat="46.3242138" lon="8.2858448">
        <ele>1921.6</ele>
        <time>2026-09-15T13:43:45Z</time>
        <extensions>
          <gpxdata:distance>9628.33</gpxdata:distance>
          <gpxdata:speed>0.912</gpxdata:speed>
        </extensions>
      </trkpt>
      <trkpt lat="46.3241078" lon="8.2856738">
        <ele>1906.9</ele>
        <time>2026-09-15T13:44:04Z</time>
        <extensions>
          <gpxdata:distance>9645.97</gpxdata:distance>
          <gpxdata:speed>0.923</gpxdata:speed>
        </extensions>
      </trkpt>
      <trkpt lat="46.3242708" lon="8.2854948">
        <ele>1912.0</ele>
        <time>2026-09-15T13:44:29Z</time>
        <extensions>
          <gpxdata:distance>9668.72</gpxdata:distance>
          <gpxdata:speed>0.928</gpxdata:speed>
        </extensions>
      </trkpt>
      <trkpt lat="46.3242748" lon="8.2849628">
        <ele>1904.5</ele>
        <time>2026-09-15T13:45:14Z</time>
        <extensions>
          <gpxdata:distance>9709.57</gpxdata:distance>
          <gpxdata:speed>0.912</gpxdata:speed>
        </extensions>
      </trkpt>
      <trkpt lat="46.3242508" lon="8.2845078">
        <ele>1894.9</ele>
        <time>2026-09-15T13:45:53Z</time>
        <extensions>
          <gpxdata:distance>9744.61</gpxdata:distance>
          <gpxdata:speed>0.890</gpxdata:speed>
        </extensions>
      </trkpt>
      <trkpt lat="46.3242988" lon="8.2842228">
        <ele>1896.1</ele>
        <time>2026-09-15T13:46:18Z</time>
        <extensions>
          <gpxdata:distance>9767.14</gpxdata:distance>
          <gpxdata:speed>0.897</gpxdata:speed>
        </extensions>
      </trkpt>
      <trkpt lat="46.3242548" lon="8.2840008">
        <ele>1892.3</ele>
        <time>2026-09-15T13:46:38Z</time>
        <extensions>
          <gpxdata:distance>9784.87</gpxdata:distance>
          <gpxdata:speed>0.872</gpxdata:speed>
        </extensions>
      </trkpt>
      <trkpt lat="46.3237428" lon="8.2827598">
        <ele>1874.1</ele>
        <time>2026-09-15T13:48:46Z</time>
        <extensions>
          <gpxdata:distance>9895.88</gpxdata:distance>
          <gpxdata:speed>0.872</gpxdata:speed>
        </extensions>
      </trkpt>
      <trkpt lat="46.3238598" lon="8.2826448">
        <ele>1865.9</ele>
        <time>2026-09-15T13:49:04Z</time>
        <extensions>
          <gpxdata:distance>9911.60</gpxdata:distance>
          <gpxdata:speed>0.872</gpxdata:speed>
        </extensions>
      </trkpt>
      <trkpt lat="46.3238438" lon="8.2824888">
        <ele>1861.5</ele>
        <time>2026-09-15T13:49:18Z</time>
        <extensions>
          <gpxdata:distance>9923.72</gpxdata:distance>
          <gpxdata:speed>0.872</gpxdata:speed>
        </extensions>
      </trkpt>
      <trkpt lat="46.3238898" lon="8.2823468">
        <ele>1855.0</ele>
        <time>2026-09-15T13:49:31Z</time>
        <extensions>
          <gpxdata:distance>9935.76</gpxdata:distance>
          <gpxdata:speed>0.900</gpxdata:speed>
        </extensions>
      </trkpt>
      <trkpt lat="46.3239538" lon="8.2822178">
        <ele>1848.7</ele>
        <time>2026-09-15T13:49:45Z</time>
        <extensions>
          <gpxdata:distance>9947.96</gpxdata:distance>
          <gpxdata:speed>0.872</gpxdata:speed>
        </extensions>
      </trkpt>
      <trkpt lat="46.3241168" lon="8.2820378">
        <ele>1839.4</ele>
        <time>2026-09-15T13:50:11Z</time>
        <extensions>
          <gpxdata:distance>9970.75</gpxdata:distance>
          <gpxdata:speed>0.872</gpxdata:speed>
        </extensions>
      </trkpt>
      <trkpt lat="46.3244598" lon="8.2819138">
        <ele>1836.5</ele>
        <time>2026-09-15T13:50:56Z</time>
        <extensions>
          <gpxdata:distance>10010.06</gpxdata:distance>
          <gpxdata:speed>0.872</gpxdata:speed>
        </extensions>
      </trkpt>
      <trkpt lat="46.3244608" lon="8.2817708">
        <ele>1833.9</ele>
        <time>2026-09-15T13:51:09Z</time>
        <extensions>
          <gpxdata:distance>10021.04</gpxdata:distance>
          <gpxdata:speed>0.872</gpxdata:speed>
        </extensions>
      </trkpt>
      <trkpt lat="46.3244978" lon="8.2816028">
        <ele>1831.4</ele>
        <time>2026-09-15T13:51:24Z</time>
        <extensions>
          <gpxdata:distance>10034.58</gpxdata:distance>
          <gpxdata:speed>0.872</gpxdata:speed>
        </extensions>
      </trkpt>
      <trkpt lat="46.3246888" lon="8.2813588">
        <ele>1825.7</ele>
        <time>2026-09-15T13:51:57Z</time>
        <extensions>
          <gpxdata:distance>10062.90</gpxdata:distance>
          <gpxdata:speed>0.872</gpxdata:speed>
        </extensions>
      </trkpt>
      <trkpt lat="46.3246818" lon="8.2810598">
        <ele>1822.4</ele>
        <time>2026-09-15T13:52:23Z</time>
        <extensions>
          <gpxdata:distance>10085.88</gpxdata:distance>
          <gpxdata:speed>0.872</gpxdata:speed>
        </extensions>
      </trkpt>
      <trkpt lat="46.3247908" lon="8.2809058">
        <ele>1818.6</ele>
        <time>2026-09-15T13:52:43Z</time>
        <extensions>
          <gpxdata:distance>10102.81</gpxdata:distance>
          <gpxdata:speed>0.872</gpxdata:speed>
        </extensions>
      </trkpt>
      <trkpt lat="46.3247928" lon="8.2805948">
        <ele>1814.2</ele>
        <time>2026-09-15T13:53:10Z</time>
        <extensions>
          <gpxdata:distance>10126.69</gpxdata:distance>
          <gpxdata:speed>0.872</gpxdata:speed>
        </extensions>
      </trkpt>
      <trkpt lat="46.3247508" lon="8.2802428">
        <ele>1809.2</ele>
        <time>2026-09-15T13:53:41Z</time>
        <extensions>
          <gpxdata:distance>10154.12</gpxdata:distance>
          <gpxdata:speed>0.883</gpxdata:speed>
        </extensions>
      </trkpt>
      <trkpt lat="46.3246358" lon="8.2799168">
        <ele>1804.2</ele>
        <time>2026-09-15T13:54:12Z</time>
        <extensions>
          <gpxdata:distance>10182.23</gpxdata:distance>
          <gpxdata:speed>0.918</gpxdata:speed>
        </extensions>
      </trkpt>
      <trkpt lat="46.3245029" lon="8.2796548">
        <ele>1797.5</ele>
        <time>2026-09-15T13:54:40Z</time>
        <extensions>
          <gpxdata:distance>10207.19</gpxdata:distance>
          <gpxdata:speed>0.875</gpxdata:speed>
        </extensions>
      </trkpt>
      <trkpt lat="46.3244889" lon="8.2792388">
        <ele>1788.9</ele>
        <time>2026-09-15T13:55:17Z</time>
        <extensions>
          <gpxdata:distance>10239.18</gpxdata:distance>
          <gpxdata:speed>0.872</gpxdata:speed>
        </extensions>
      </trkpt>
      <trkpt lat="46.3248019" lon="8.2794258">
        <ele>1784.4</ele>
        <time>2026-09-15T13:56:00Z</time>
        <extensions>
          <gpxdata:distance>10276.83</gpxdata:distance>
          <gpxdata:speed>0.880</gpxdata:speed>
        </extensions>
      </trkpt>
      <trkpt lat="46.3250449" lon="8.2794298">
        <ele>1774.1</ele>
        <time>2026-09-15T13:56:31Z</time>
        <extensions>
          <gpxdata:distance>10303.85</gpxdata:distance>
          <gpxdata:speed>0.872</gpxdata:speed>
        </extensions>
      </trkpt>
      <trkpt lat="46.3254998" lon="8.2799558">
        <ele>1774.0</ele>
        <time>2026-09-15T13:57:42Z</time>
        <extensions>
          <gpxdata:distance>10368.58</gpxdata:distance>
          <gpxdata:speed>0.911</gpxdata:speed>
        </extensions>
      </trkpt>
      <trkpt lat="46.3259138" lon="8.2799498">
        <ele>1767.7</ele>
        <time>2026-09-15T13:58:32Z</time>
        <extensions>
          <gpxdata:distance>10414.62</gpxdata:distance>
          <gpxdata:speed>0.922</gpxdata:speed>
        </extensions>
      </trkpt>
      <trkpt lat="46.3258889" lon="8.2795988">
        <ele>1765.0</ele>
        <time>2026-09-15T13:59:01Z</time>
        <extensions>
          <gpxdata:distance>10441.71</gpxdata:distance>
          <gpxdata:speed>0.932</gpxdata:speed>
        </extensions>
      </trkpt>
    </trkseg>
  </trk>
</gpx>